OBJECT_NAME,OBJECT_ID,EPOCH,MEAN_MOTION,ECCENTRICITY,INCLINATION,RA_OF_ASC_NODE,ARG_OF_PERICENTER,MEAN_ANOMALY,EPHEMERIS_TYPE,CLASSIFICATION_TYPE,NORAD_CAT_ID,ELEMENT_SET_NO,REV_AT_EPOCH,BSTAR,MEAN_MOTION_DOT,MEAN_MOTION_DDOT
INTELSAT 902 (IS-902),2001-039A,2026-07-08T03:11:41.066016,1.00272293,.0004409,6.1688,71.5272,32.2369,180.1363,0,U,26900,999,9090,0,-.273E-5,0
INTELSAT 904 (IS-904),2002-007A,2026-07-08T01:34:23.413728,1.00272778,.0005608,6.9688,68.9311,20.9449,188.2717,0,U,27380,999,5197,0,-.215E-5,0
DIRECTV 5 (TEMPO 1),2002-023A,2026-07-08T02:54:41.538240,1.00271086,.0003111,4.9279,75.0498,34.7043,109.8929,0,U,27426,999,8833,0,-.45E-6,0
INTELSAT 905 (IS-905),2002-027A,2026-07-07T18:13:42.807936,1.00272080,.0003694,6.8018,69.5497,41.5391,310.8614,0,U,27438,999,5156,0,.104E-5,0
GALAXY 3C (G-3C),2002-030A,2026-07-08T04:22:25.180032,1.00271135,.0001638,3.7842,77.7048,36.4791,142.7361,0,U,27445,999,4670,0,-.14E-5,0
INTELSAT 906 (IS-906),2002-041A,2026-07-08T04:52:21.988992,1.00271715,.0003999,5.8544,72.6628,16.3787,334.3363,0,U,27513,999,8723,0,.24E-6,0
GALAXY 13 (HORIZONS-1),2003-044A,2026-07-08T04:55:18.657120,1.00274807,.0001761,1.4723,83.5964,23.7573,102.6437,0,U,27954,999,4678,0,.146E-5,0
INTELSAT 10-02,2004-022A,2026-07-08T04:11:38.603904,1.00268311,.0000314,0.0471,261.9157,343.4313,102.6938,0,U,28358,999,8076,0,.3E-7,0
DIRECTV 8,2005-019A,2026-07-08T03:17:52.237824,1.00271877,.0003126,0.0182,50.4972,69.6210,96.3962,0,U,28659,999,7728,0,.16E-6,0
GALAXY 28 (G-28),2005-022A,2026-07-08T04:27:38.728224,1.00270255,.0002199,3.3494,78.6807,31.6516,215.6223,0,U,28702,999,5218,0,-.188E-5,0
GALAXY 16 (G-16),2006-023A,2026-07-08T04:50:46.205952,1.00271842,.0002545,0.0311,127.6458,343.7694,148.4324,0,U,29236,999,7318,0,-.112E-5,0
DIRECTV 9S,2006-043A,2026-07-08T05:31:16.891104,1.00271051,.0005115,2.4718,80.6517,29.7085,157.4471,0,U,29494,999,5159,0,-.1E-5,0
GALAXY 17 (G-17),2007-016B,2026-07-08T03:01:48.355104,1.00271999,.0003681,3.0213,79.6386,27.4955,139.3788,0,U,31307,999,7001,0,-.193E-5,0
INTELSAT 11 (IS-11),2007-044B,2026-07-08T04:39:51.787296,0.99049690,.0003865,3.6167,78.4170,96.8315,214.2275,0,U,32253,999,6865,0,.25E-6,0
HORIZONS-2,2007-063B,2026-07-08T04:16:53.226912,1.00271862,.0003738,2.6529,80.3712,14.4903,181.7044,0,U,32388,999,6802,0,-.24E-5,0
DIRECTV 11,2008-013A,2026-07-07T23:32:26.983968,1.00270904,.0000161,0.0411,212.4296,257.7513,69.6839,0,U,32729,999,4580,0,-.11E-5,0
GALAXY 18 (G-18),2008-024A,2026-07-08T01:08:17.565792,1.00272856,.000291,0.0160,336.4341,141.0127,62.6404,0,U,32951,999,4606,0,.4E-6,0
GALAXY 19 (G-19),2008-045A,2026-07-07T14:59:43.972800,1.00271643,.000281,0.0577,253.8618,236.1509,283.5017,0,U,33376,999,6510,0,-.124E-5,0
FM-5,2009-034A,2026-07-08T04:41:53.560320,1.00269649,.0000984,0.0393,268.9657,67.4787,294.0140,0,U,35493,999,4685,0,-.185E-5,0
INTELSAT 14 (IS-14),2009-064A,2026-07-08T03:54:38.639808,1.00270663,.000227,0.0056,43.6992,72.9867,183.1074,0,U,36097,999,6081,0,-.258E-5,0
INTELSAT 15 (IS-15),2009-067A,2026-07-08T02:07:42.720096,1.00271052,.0002233,0.0178,28.4079,84.3689,290.3489,0,U,36106,999,4143,0,-.17E-5,0
DIRECTV 12,2009-075A,2026-07-07T14:58:06.630240,1.00271960,.0000279,0.0370,181.4659,336.4988,249.4222,0,U,36131,999,4675,0,-.88E-6,0
INTELSAT 16 (IS-16),2010-006A,2026-07-08T04:44:11.052096,1.00269402,.0002449,0.0118,327.1992,163.2959,150.4960,0,U,36397,999,5986,0,-.229E-5,0
XM-5,2010-053A,2026-07-08T02:53:11.681376,1.00270800,.0001811,0.0632,268.3489,309.4674,356.3634,0,U,37185,999,5769,0,-.8E-7,0
INTELSAT 17 (IS-17),2010-065B,2026-07-08T03:44:52.884096,1.00272689,.0002613,0.0103,79.1586,33.4690,295.6964,0,U,37238,999,5345,0,.13E-6,0
INTELSAT 28 (IS-28),2011-016A,2026-07-08T03:46:38.459712,1.00273119,.000377,1.8572,82.3676,33.8200,194.8535,0,U,37392,999,5349,0,-.211E-5,0
INTELSAT 18 (IS-18),2011-056A,2026-07-08T02:34:40.135008,1.00271618,.0001822,0.0171,346.8462,132.2193,25.6566,0,U,37834,999,5402,0,.68E-6,0
INTELSAT 22 (IS-22),2012-011A,2026-07-08T04:47:21.721344,1.00269460,.0001867,0.0292,59.1866,74.3080,296.5795,0,U,38098,999,739,0,0,0
INTELSAT 19 (IS-19),2012-030A,2026-07-08T02:30:33.031008,1.00271632,.0003163,0.0011,354.3924,125.6998,9.6089,0,U,38356,999,5066,0,-.41E-6,0
INTELSAT 20 (IS-20),2012-043A,2026-07-08T04:52:21.988992,1.00272878,.0001172,0.0094,48.7876,134.7906,244.1617,0,U,38740,999,5095,0,-.1E-6,0
INTELSAT 21 (IS-21),2012-045A,2026-07-08T03:13:10.312896,1.00269849,.0001764,0.0174,349.6483,139.7386,146.9946,0,U,38749,999,5073,0,-.27E-5,0
