INTELSAT 902 (IS-902)   
1 26900U 01039A   26189.13311419 -.00000273  00000+0  00000+0 0  9990
2 26900   6.1688  71.5272 0004409  32.2369 180.1363  1.00272293 90900
INTELSAT 904 (IS-904)   
1 27380U 02007A   26189.06554877 -.00000215  00000+0  00000+0 0  9994
2 27380   6.9688  68.9311 0005608  20.9449 188.2717  1.00272778 51974
DIRECTV 5 (TEMPO 1)     
1 27426U 02023A   26189.12131410 -.00000045  00000+0  00000+0 0  9995
2 27426   4.9279  75.0498 0003111  34.7043 109.8929  1.00271086 88339
INTELSAT 905 (IS-905)   
1 27438U 02027A   26188.75952324  .00000104  00000+0  00000+0 0  9990
2 27438   6.8018  69.5497 0003694  41.5391 310.8614  1.00272080 51564
GALAXY 3C (G-3C)        
1 27445U 02030A   26189.18223588 -.00000140  00000+0  00000+0 0  9994
2 27445   3.7842  77.7048 0001638  36.4791 142.7361  1.00271135 46700
INTELSAT 906 (IS-906)   
1 27513U 02041A   26189.20303228  .00000024  00000+0  00000+0 0  9995
2 27513   5.8544  72.6628 0003999  16.3787 334.3363  1.00271715 87238
GALAXY 13 (HORIZONS-1)  
1 27954U 03044A   26189.20507705  .00000146  00000+0  00000+0 0  9999
2 27954   1.4723  83.5964 0001761  23.7573 102.6437  1.00274807 46780
INTELSAT 10-02          
1 28358U 04022A   26189.17475236  .00000003  00000+0  00000+0 0  9996
2 28358   0.0471 261.9157 0000314 343.4313 102.6938  1.00268311 80762
DIRECTV 8               
1 28659U 05019A   26189.13741016  .00000016  00000+0  00000+0 0  9999
2 28659   0.0182  50.4972 0003126  69.6210  96.3962  1.00271877 77288
GALAXY 28 (G-28)        
1 28702U 05022A   26189.18586491 -.00000188  00000+0  00000+0 0  9992
2 28702   3.3494  78.6807 0002199  31.6516 215.6223  1.00270255 52182
GALAXY 16 (G-16)        
1 29236U 06023A   26189.20192368 -.00000112  00000+0  00000+0 0  9993
2 29236   0.0311 127.6458 0002545 343.7694 148.4324  1.00271842 73184
DIRECTV 9S              
1 29494U 06043A   26189.23005661 -.00000100  00000+0  00000+0 0  9990
2 29494   2.4718  80.6517 0005115  29.7085 157.4471  1.00271051 51598
GALAXY 17 (G-17)        
1 31307U 07016B   26189.12625411 -.00000193  00000+0  00000+0 0  9998
2 31307   3.0213  79.6386 0003681  27.4955 139.3788  1.00271999 70019
INTELSAT 11 (IS-11)     
1 32253U 07044B   26189.19434939  .00000025  00000+0  00000+0 0  9993
2 32253   3.6167  78.4170 0003865  96.8315 214.2275  0.99049690 68655
HORIZONS-2              
1 32388U 07063B   26189.17839383 -.00000240  00000+0  00000+0 0  9993
2 32388   2.6529  80.3712 0003738  14.4903 181.7044  1.00271862 68021
DIRECTV 11              
1 32729U 08013A   26188.98086787 -.00000110  00000+0  00000+0 0  9994
2 32729   0.0411 212.4296 0000161 257.7513  69.6839  1.00270904 45806
GALAXY 18 (G-18)        
1 32951U 08024A   26189.04742553  .00000040  00000+0  00000+0 0  9992
2 32951   0.0160 336.4341 0002910 141.0127  62.6404  1.00272856 46060
GALAXY 19 (G-19)        
1 33376U 08045A   26188.62481450 -.00000124  00000+0  00000+0 0  9990
2 33376   0.0577 253.8618 0002810 236.1509 283.5017  1.00271643 65105
FM-5                    
1 35493U 09034A   26189.19575880 -.00000185  00000+0  00000+0 0  9992
2 35493   0.0393 268.9657 0000984  67.4787 294.0140  1.00269649 46854
INTELSAT 14 (IS-14)     
1 36097U 09064A   26189.16294722 -.00000258  00000+0  00000+0 0  9997
2 36097   0.0056  43.6992 0002270  72.9867 183.1074  1.00270663 60815
INTELSAT 15 (IS-15)     
1 36106U 09067A   26189.08868889 -.00000170  00000+0  00000+0 0  9996
2 36106   0.0178  28.4079 0002233  84.3689 290.3489  1.00271052 41437
DIRECTV 12              
1 36131U 09075A   26188.62368785 -.00000088  00000+0  00000+0 0  9990
2 36131   0.0370 181.4659 0000279 336.4988 249.4222  1.00271960 46752
INTELSAT 16 (IS-16)     
1 36397U 10006A   26189.19735014 -.00000229  00000+0  00000+0 0  9993
2 36397   0.0118 327.1992 0002449 163.2959 150.4960  1.00269402 59864
XM-5                    
1 37185U 10053A   26189.12027409 -.00000008  00000+0  00000+0 0  9991
2 37185   0.0632 268.3489 0001811 309.4674 356.3634  1.00270800 57696
INTELSAT 17 (IS-17)     
1 37238U 10065B   26189.15616764  .00000013  00000+0  00000+0 0  9999
2 37238   0.0103  79.1586 0002613  33.4690 295.6964  1.00272689 53455
INTELSAT 28 (IS-28)     
1 37392U 11016A   26189.15738958 -.00000211  00000+0  00000+0 0  9998
2 37392   1.8572  82.3676 0003770  33.8200 194.8535  1.00273119 53494
INTELSAT 18 (IS-18)     
1 37834U 11056A   26189.10740897  .00000068  00000+0  00000+0 0  9992
2 37834   0.0171 346.8462 0001822 132.2193  25.6566  1.00271618 54020
INTELSAT 22 (IS-22)     
1 38098U 12011A   26189.19955696  .00000000  00000+0  00000+0 0  9997
2 38098   0.0292  59.1866 0001867  74.3080 296.5795  1.00269460  7392
INTELSAT 19 (IS-19)     
1 38356U 12030A   26189.10454897 -.00000041  00000+0  00000+0 0  9999
2 38356   0.0011 354.3924 0003163 125.6998   9.6089  1.00271632 50663
INTELSAT 20 (IS-20)     
1 38740U 12043A   26189.20303228 -.00000010  00000+0  00000+0 0  9998
2 38740   0.0094  48.7876 0001172 134.7906 244.1617  1.00272878 50957
INTELSAT 21 (IS-21)     
1 38749U 12045A   26189.13414714 -.00000270  00000+0  00000+0 0  9992
2 38749   0.0174 349.6483 0001764 139.7386 146.9946  1.00269849 50730
